INTELSAT 902 (IS-902)   
1 26900U 01039A   26121.51698280 -.00000277  00000+0  00000+0 0  9996
2 26900   6.0013  72.3394 0004306 322.6804 320.4535  1.00272014 90227
INTELSAT 904 (IS-904)   
1 27380U 02007A   26122.09280969 -.00000219  00000+0  00000+0 0  9996
2 27380   6.8070  69.7273 0007948 342.0653 170.1561  1.00272760 51303
DIRECTV 5 (TEMPO 1)     
1 27426U 02023A   26121.96239894 -.00000051  00000+0  00000+0 0  9995
2 27426   4.7615  75.8720 0003759 334.1972  46.1842  1.00272886 87664
INTELSAT 905 (IS-905)   
1 27438U 02027A   26122.02836163  .00000100  00000+0  00000+0 0  9996
2 27438   6.6398  70.3454 0003847 344.9983  37.6232  1.00273184 50906
GALAXY 3C (G-3C)        
1 27445U 02030A   26122.03676833 -.00000146  00000+0  00000+0 0  9996
2 27445   3.6122  78.5925 0001876  22.2685  37.4755  1.00272267 46032
INTELSAT 906 (IS-906)   
1 27513U 02041A   26121.92565211  .00000020  00000+0  00000+0 0  9998
2 27513   5.6869  73.4763 0004078 341.2781 202.4738  1.00271652 86564
GALAXY 13 (HORIZONS-1)  
1 27954U 03044A   26122.17267199  .00000139  00000+0  00000+0 0  9994
2 27954   1.3009  84.3976 0002160 309.7737  98.1034  1.00268979 46113
INTELSAT 10-02          
1 28358U 04022A   26121.55611105  .00000000  00000+0  00000+0 0  9998
2 28358   0.0201  56.1910 0001061  33.7719 328.6837  1.00270698 80087
DIRECTV 8               
1 28659U 05019A   26122.10461389  .00000007  00000+0  00000+0 0  9995
2 28659   0.0017  43.1288 0003308   6.4285  89.0870  1.00272190 76619
GALAXY 28 (G-28)        
1 28702U 05022A   26122.09280969 -.00000194  00000+0  00000+0 0  9997
2 28702   3.1815  79.4836 0003421 330.5939 176.2425  1.00268264 51516
GALAXY 16 (G-16)        
1 29236U 06023A   26122.22220786 -.00000121  00000+0  00000+0 0  9998
2 29236   0.0153 209.7473 0002984 199.3773 152.0193  1.00272320 72510
DIRECTV 9S              
1 29494U 06043A   26122.22727176 -.00000107  00000+0  00000+0 0  9995
2 29494   2.3034  81.4302 0004580 336.6856 142.6524  1.00272383 50920
GALAXY 17 (G-17)        
1 31307U 07016B   26122.14447421 -.00000199  00000+0  00000+0 0  9996
2 31307   2.8571  80.4578 0004634 336.7420 129.8815  1.00271877 69342
INTELSAT 11 (IS-11)     
1 32253U 07044B   26122.09280969 -.00000233  00000+0  00000+0 0  9993
2 32253   3.4468  79.2085 0000785 236.2448 266.4747  0.99052928 67993
HORIZONS-2              
1 32388U 07063B   26122.13933597 -.00000247  00000+0  00000+0 0  9995
2 32388   2.4847  81.1700 0003728 330.8706 144.3898  1.00271234 67353
DIRECTV 11              
1 32729U 08013A   26121.89323866 -.00000120  00000+0  00000+0 0  9994
2 32729   0.0043 326.0954 0000345  58.8510  57.2494  1.00272557 45122
GALAXY 18 (G-18)        
1 32951U 08024A   26121.88847197  .00000030  00000+0  00000+0 0  9999
2 32951   0.0168 273.5953 0003525 140.1816   2.8996  1.00273544 45387
INTELSAT 25 (IS-25)     
1 33153U 08034A   26113.08239256 -.00000278  00000+0  00000+0 0  9994
2 33153   2.5670  80.9425 0002165 274.6153 207.9060  0.99965107 65143
GALAXY 19 (G-19)        
1 33376U 08045A   26122.15044875  .00000000  00000+0  00000+0 0  9994
2 33376   0.0102 263.4919 0002939 141.8783 131.8720  1.00269974 64444
FM-5                    
1 35493U 09034A   26122.00114413 -.00000194  00000+0  00000+0 0  9990
2 35493   0.0134 272.1604 0000349  37.6585 184.3667  1.00271262 46181
INTELSAT 14 (IS-14)     
1 36097U 09064A   26122.11788866 -.00000267  00000+0  00000+0 0  9996
2 36097   0.0043  36.7336 0002625   8.0273 172.7291  1.00272808 60145
INTELSAT 15 (IS-15)     
1 36106U 09067A   26122.07238850 -.00000179  00000+0  00000+0 0  9990
2 36106   0.0175 278.3374 0002489 131.3361 281.5347  1.00271427 40767
DIRECTV 12              
1 36131U 09075A   26122.22263705 -.00000097  00000+0  00000+0 0  9990
2 36131   0.0042  66.0463 0000386   2.0235 129.5072  1.00272606 46095
INTELSAT 16 (IS-16)     
1 36397U 10006A   26122.13933597 -.00000239  00000+0  00000+0 0  9991
2 36397   0.0164 289.5897 0002456 141.7873 122.6503  1.00272227 59193
XM-5                    
1 37185U 10053A   26122.15600388 -.00000017  00000+0  00000+0 0  9994
2 37185   0.0609 271.4857 0003345 271.4503 338.1080  1.00271837 57028
INTELSAT 17 (IS-17)     
1 37238U 10065B   26122.13990208  .00000005  00000+0  00000+0 0  9993
2 37238   0.0108 189.1794 0002729 225.6202 281.6339  1.00270570 52788
INTELSAT 28 (IS-28)     
1 37392U 11016A   26122.09280969 -.00000218  00000+0  00000+0 0  9999
2 37392   1.6882  83.1563 0004261 323.9657 174.6022  1.00272156 52828
INTELSAT 18 (IS-18)     
1 37834U 11056A   26122.09119522  .00000059  00000+0  00000+0 0  9992
2 37834   0.0157 275.6233 0002082 131.8712  25.3453  1.00271986 53344
INTELSAT 22 (IS-22)     
1 38098U 12011A   26121.35676387 -.00000055  00000+0  00000+0 0  9999
2 38098   0.0136 282.2602 0001919 134.6987   2.8852  1.00275520  6711
INTELSAT 19 (IS-19)     
1 38356U 12030A   26120.95600525  .00000000  00000+0  00000+0 0  9992
2 38356   0.0139 277.4588 0003365 130.6060 320.9979  1.00271481 49976
INTELSAT 20 (IS-20)     
1 38740U 12043A   26122.14042208 -.00000018  00000+0  00000+0 0  9994
2 38740   0.0204 213.6151 0001939 316.6549 168.8526  1.00272386 50285
INTELSAT 21 (IS-21)     
1 38749U 12045A   26122.11537530  .00000000  00000+0  00000+0 0  9999
2 38749   0.0104 282.8284 0002068 130.7582 149.9808  1.00270393 50069
INTELSAT 23 (IS-23)     
1 38867U 12057A   26122.11632865 -.00000279  00000+0  00000+0 0  9999
2 38867   0.0133 280.6933 0000082 314.5564 333.6553  1.00269957 49493
FM-6                    
1 39360U 13058A   26122.15600388 -.00000009  00000+0  00000+0 0  9990
2 39360   0.0093 277.0146 0000284 260.2405 342.6653  1.00263287 45619
INTELSAT 30 (IS-30)     
1 40271U 14062A   26122.03668168 -.00000145  00000+0  00000+0 0  9997
2 40271   0.0167 338.5307 0001151  57.3290 102.2598  1.00271549  6331
DIRECTV 14              
1 40333U 14078B   26122.22220836 -.00000119  00000+0  00000+0 0  9991
2 40333   0.0174 292.1625 0000294 211.8225  56.9242  1.00270955 41585
DIRECTV 15              
1 40663U 15026A   26121.48402309  .00000000  00000+0  00000+0 0  9993
2 40663   0.0117  78.6629 0000659  70.3409 141.7724  1.00269843 39990
SKY MEXICO-1            
1 40664U 15026B   26122.08239171 -.00000228  00000+0  00000+0 0  9999
2 40664   0.0170 268.6222 0002095 137.1016 125.1484  1.00272418 39993
INTELSAT 34 (IS-34)     
1 40874U 15039A   26121.40281402 -.00000281  00000+0  00000+0 0  9994
2 40874   0.0109 291.7970 0000241 118.6956 258.3580  1.00270501 39169
INTELSAT 31 (IS-31)     
1 41581U 16035A   26122.03668168 -.00000145  00000+0  00000+0 0  9994
2 41581   0.0124 247.3505 0001831  27.8170 222.9527  1.00272695 36226
INTELSAT 36 (IS-36)     
1 41747U 16053A   26120.50049799 -.00000022  00000+0  00000+0 0  9995
2 41747   0.0170 324.6529 0001272  12.7588 129.6979  1.00270971 35487
INTELSAT 32E (IS-32E)   
1 41945U 17007B   26120.83481160  .00000000  00000+0  00000+0 0  9998
2 41945   0.0159 269.8801 0000358 105.2391 101.0021  1.00268269 33758
INTELSAT 35E (IS-35E)   
1 42818U 17041A   26122.09280969  .00000000  00000+0  00000+0 0  9990
2 42818   0.0134 274.0266 0002172 130.1318 174.7746  1.00269497 32356
INTELSAT 37E (IS-37E)   
1 42950U 17059A   26122.08725198 -.00000135  00000+0  00000+0 0  9993
2 42950   0.0053 293.6804 0002819 112.8498 186.8965  1.00270883 31607
AZERSPACE 2 (IS-38)     
1 43632U 18074A   26120.56716247  .00000139  00000+0  00000+0 0  9998
2 43632   0.0192 267.1202 0001870 122.1057  78.5764  1.00272087 27975
HORIZONS-3E             
1 43633U 18074B   26120.23514921 -.00000030  00000+0  00000+0 0  9999
2 43633   0.0433  92.2809 0000855 251.8064 127.7359  1.00269998 27866
AT&T T-16               
1 44333U 19034A   26120.96605028 -.00000112  00000+0  00000+0 0  9994
2 44333   0.0342 108.3269 0000456  91.2226 266.2766  1.00273205 25163
INTELSAT 39 (IS-39)     
1 44476U 19049B   26122.13912207  .00000040  00000+0  00000+0 0  9998
2 44476   0.0192 271.2173 0000371 328.6055  92.2669  1.00271276 24660
GALAXY 30 (G-30)        
1 46114U 20056C   26122.10461389  .00000000  00000+0  00000+0 0  9992
2 46114   0.0175 278.6955 0002757 141.4171  72.5821  1.00272647 20830
GALAXY 33 (G-33)        
1 54026U 22128A   26122.16711156  .00000085  00000+0  00000+0 0  9994
2 54026   0.0176 286.4754 0002052 114.2150 106.5613  1.00271889 13284
GALAXY 34 (G-34)        
1 54027U 22128B   26121.60683294  .00000000  00000+0  00000+0 0  9991
2 54027   0.0179 261.1725 0001754 144.9796 262.8441  1.00268226 13444
GALAXY 31 (G-31)        
1 54243U 22153A   26122.22579868  .00000019  00000+0  00000+0 0  9999
2 54243   0.0194 239.8856 0001500 163.8906 136.6617  1.00271740  6675
GALAXY 32 (G-32)        
1 54244U 22153B   26121.96621227 -.00000169  00000+0  00000+0 0  9994
2 54244   0.0150 317.6233 0002949  78.8025  80.3030  1.00272242 12687
GALAXY 35 (G-35)        
1 54741U 22170A   26122.15044875 -.00000156  00000+0  00000+0 0  9991
2 54741   0.0135 262.2962 0002286 146.4138 132.4245  1.00272902 12430
GALAXY 36 (G-36)        
1 54742U 22170B   26122.14489088 -.00000179  00000+0  00000+0 0  9995
2 54742   0.0365 117.1584 0002707 305.9456 120.1288  1.00271854 12310
GALAXY 37 (G-37)        
1 57493U 23112A   26122.10461389  .00000054  00000+0  00000+0 0  9999
2 57493   0.0060 301.2510 0002146  99.3664  90.0708  1.00272020 10085
